[{"OBJECT_NAME":"STARLINK-32552","OBJECT_ID":"2024-225M","EPOCH":"2026-03-09T15:50:48.714720","MEAN_MOTION":14.98571867,"ECCENTRICITY":0.0006013,"INCLINATION":70.0041,"RA_OF_ASC_NODE":164.4162,"ARG_OF_PERICENTER":234.2276,"MEAN_ANOMALY":125.8325,"EPHEMERIS_TYPE":0,"CLASSIFICATION_TYPE":"U","NORAD_CAT_ID":62174,"ELEMENT_SET_NO":999,"REV_AT_EPOCH":6987,"BSTAR":0.0026247,"MEAN_MOTION_DOT":0.00031571,"MEAN_MOTION_DDOT":0},{"OBJECT_NAME":"COSMOS 2251 DEB","OBJECT_ID":"1993-036BRU","EPOCH":"2026-02-21T14:09:45.153216","MEAN_MOTION":14.99001579,"ECCENTRICITY":0.0017259,"INCLINATION":74.0061,"RA_OF_ASC_NODE":146.9269,"ARG_OF_PERICENTER":277.3195,"MEAN_ANOMALY":147.2685,"EPHEMERIS_TYPE":0,"CLASSIFICATION_TYPE":"U","NORAD_CAT_ID":38062,"ELEMENT_SET_NO":999,"REV_AT_EPOCH":64090,"BSTAR":0.0019091,"MEAN_MOTION_DOT":0.00023247,"MEAN_MOTION_DDOT":0}]
